#dP2021  2 15  0  0  0.00000000      96 __u+U ITR00 EXT  IAC
## 2145  86400.00000000   900.00000000 59260 0.0000000000000
+  117   C06C07C08C09C10C11C12C13C14C16C19C20C21C22C23C24C25
+        C26C27C28C29C30C32C33C34C35C36C37C38C39C40C41C42C43
+        C44C45C46E01E02E03E04E05E07E08E09E11E12E13E14E15E18
+        E19E21E24E25E26E27E30E31E33E36G01G02G03G04G05G06G07
+        G08G09G10G11G12G13G14G15G16G17G18G19G20G21G22G23G24
+        G25G26G27G28G29G30G31G32J01J02J03R01R02R03R04R05R07
+        R08R09R11R12R13R14R15R16R17R18R19R20R21R22R24  0  0
++         9  9 10  9 11  9  8 10  9  8  8  9  9  7  8  9  9
++         9  9  9  8 10  8 10  8  7  8  8  9  9 12  9  9  9
++         9 10  9  8  9  9  9  8  9  9  8  9  9 10  8 10  9
++        10  9  9  9  8  9  9 10  9  8  8  9  9  8  9  9  9
++         9  8  8  9  8  9  8  8  9  9  9 10  7  9  9  8  7
++         8  7  7 10 10  9  9  8 11  9 10 11  9  9  8  9 10
++         9  7  9  8  9  8  9 10  9  9  9  8  9  9  8  0  0
%c M  cc GPS ccc cccc cccc cccc cccc ccccc ccccc ccccc ccccc
%c cc cc ccc ccc cccc cccc cccc cccc ccccc ccccc ccccc ccccc
%f  0.0000000  0.000000000  0.00000000000  0.000000000000000
%f  0.0000000  0.000000000  0.00000000000  0.000000000000000
%i    0    0    0    0      0      0      0      0         0
%i    0    0    0    0      0      0      0      0         0
/* IAC                                ULTRA-RAPID PREDICTION
/* S/V CLOCKS ARE ALIGNED TO GNSS TIME                      
/* G:C1WC2W R:C1PC2P E:C1XC5X C:C2IC6I J:C1CC2S             
/* PCV:IGS14_2134 OL/AL:FES2004  NONE     YN ORB:CoN CLK:CoN
*  2021 02 15  3 30  0.00000000
PC06 -21315.069635  25912.618934  25671.104120     92.843813
PC07 -14441.830769  38309.312551  11360.957108   -327.647584
PC08  -7185.129556  21407.875091 -35437.638483   -913.887032
PC09  -6354.310504  25886.814911  32843.287690    732.500829
PC10  -4910.390464  42108.808224   -607.960535    -86.304502
PC11 -27484.250727    648.486017   4971.783104   -922.646744
PC12 -17170.632806 -10300.883735  19484.065854    799.032580
PC13   7040.160386  29923.674850 -28620.224352    142.030422
PC14 -17057.154071   2034.898472 -21976.343149    139.077899
PC16 -19891.902125  25899.673582  26649.278663   -696.462307
PC19  17637.910025 -12517.058859  17653.434557    728.365964
PC20  14213.122710   7251.864552  22911.429144   -915.780112
PC21  -2082.418082 -23609.249552 -14700.141118   -838.953917
PC22  10956.604573 -25576.697976   1955.714258   -880.192999
PC23  -4287.420684  18224.748086  20688.337188   -876.113837
PC24 -21099.623005 -15990.004517   8860.615468   -760.798702
PC25 -17762.796972   2650.269402  21356.488164   -933.887611
PC26 -12985.073009 -23546.617415  -7545.140387    948.343538
PC27   7251.069759  14692.550498 -22606.550489    483.543972
PC28 -13873.188477  15220.014638 -18826.978005   -109.364401
PC29  26477.073454  -7848.368340   4036.070486    352.592271
PC30  23944.128835   4968.296247 -13468.173328    444.756062
PC32   2277.721748  23614.165463  14714.622532   -894.930185
PC33 -17588.493690  12563.975667 -17651.062361   -961.332944
PC34 -24285.778052  -4623.072711  12914.624248   -739.718511
PC35  13657.826751 -15687.756251  18621.455622   -417.392499
PC36  17969.203478  -1920.527668 -21244.288316   -755.805631
PC37  11790.453333  23877.857867   8313.183886   -865.252476
PC38  -5955.469105  24834.285054 -33498.426615    130.155150
PC39 -17762.407393  27193.195361  26820.945529     28.479813
PC40 -11171.864974  40691.958207   2004.249106    131.696235
PC41 -10992.101203  25550.340789  -2142.032194   -930.029574
PC42 -13944.623723  -7959.675579 -22780.012776   -869.261936
PC43 -26636.029979   7455.354968  -3593.279402   -598.431993
PC44  -7469.674059 -14638.272781  22546.288386     39.347062
PC45   4079.986400 -18232.512121 -20738.447850    362.535693
PC46  21227.957154  15273.139211  -9681.453491    404.793844
PE01 -11477.648952  16265.883146  21898.265921  -1046.401752
PE02  11411.642073 -16405.415286 -21848.142847    198.501072
PE03  22227.839468 -19512.146557   1026.710527   -398.775621
PE04  -8409.780591  23319.941427  16176.425772   -710.081200
PE05  23209.389119  -4192.926386  17886.575936   -304.463174
PE07 -10641.720453 -13415.612709 -24141.130390   -501.015627
PE08   8067.784075 -23237.112797 -16460.580585   6046.791970
PE09  10734.441376  13149.681002  24250.999832   5764.998206
PE11  21159.195964  15669.402538 -13543.854936   6320.201035
PE12    634.286549  16847.281894 -24324.176469   5355.510815
PE13 -20877.244047 -15692.534210  13934.088593    412.091823
PE14 -16067.981454  22438.000905 -15405.315627  -1330.367565
PE15   -723.166538 -16781.291988  24385.250650    829.242498
PE18  19135.682603 -14737.597465   5843.673317  -1454.315657
PE19 -23089.038784  18235.711799  -3217.555592    204.116424
PE21 -17301.831267  -4818.958368  23525.648890   -648.533377
PE24  12909.093919  24257.232447 -10980.463511   -744.303263
PE25  17310.892945   5002.083629 -23479.418023   -526.468043
PE26 -28672.347919  -5015.960547  -5365.298849   2146.783703
PE27 -13291.864253 -23809.394323  11535.363535     29.611073
PE30   -791.682265 -28533.083475  -7890.667824   3180.194694
PE31   1490.399262  28677.325703   7163.514974   -478.303309
PE33 -19818.218595   7991.244100 -20466.006722   -465.710836
PE36  28731.498726   5366.712720   4715.947127    440.462575
PG01  22202.153998  14738.576706  -2538.425072    760.950663
PG02  -4187.862692 -17526.672579  20165.218699   -576.976485
PG03  12813.742413  14137.616534  18441.031128    -83.339986
PG04  16745.876743   6458.655565  19599.279365   -180.299394
PG05  -3955.727561 -25888.373581  -3947.961496    -33.731217
PG06   9881.837315 -11271.504802  21995.107955     -2.784258
PG07  23845.640249   4763.283307 -10908.173233     59.122441
PG08  10395.917576  11169.582683 -21753.792543    -10.371154
PG09  23302.644975  -4360.052284  11935.595764   -322.993015
PG10 -11825.862574  15866.229121 -17475.137559    -61.735894
PG11  19044.226867  11753.449693 -14485.536031    -24.303322
PG12  -9678.821508 -18773.128550  15948.306168     -1.275173
PG13    961.136569 -16209.996226 -21130.398984     97.353857
PG14  13287.517217 -14096.518545 -18177.759239     96.905569
PG15 -12349.309266 -10657.297259 -21347.336410   -169.334846
PG16   -267.349419  26186.527376  -2707.815334   -280.298392
PG17  21745.858312 -14645.707329   4651.963318    394.376101
PG18 -22496.682375  -2109.338768 -14011.099618    347.325292
PG19  17477.046371 -16267.360031  11254.121135    -38.346019
PG20 -15423.831345   3276.010375 -21419.699700    524.689101
PG21  18938.185796  16119.012021  -9176.431315     95.674896
PG22  11083.407744  21218.176995  11883.867938   -679.036325
PG23 -14857.255984   4444.641893 -21580.357504    118.364505
PG24 -20223.438972 -15899.360780  -7619.111597      2.316221
PG25 -14940.312377  -3925.779377  21376.786271     80.725478
PG26  -5026.771792  24449.563991   8629.508460     45.063980
PG27  -3213.620643  17439.875211 -19809.037932    -76.538707
PG28  12216.921187 -17082.156729 -15811.753544    615.386929
PG29 -23426.847427   2585.695312  12245.231798   -295.169772
PG30  17634.333372  -5736.900618 -19047.198918   -384.914289
PG31  -7975.045397  13037.239336  21643.104769   -100.160151
PG32 -20290.988149  16278.718722   4987.339393     18.770429
PJ01 -25508.481443  32582.599376  -3654.618837   -341.218361
PJ02 -25780.083923  23265.688080  28810.128560      1.909570
PJ03 -34316.113656  18765.803012 -11151.419146     -0.740469
PR01  -7352.041476  22317.332763   9944.514592     75.010437
PR02   6838.066523   9380.840668  22746.872991    467.063520
PR03  15212.346759  -7655.890593  19053.460199     30.832450
PR04  14851.152618 -20203.008002   4734.508722     74.065175
PR05   6353.340866 -21449.483805 -12269.889223     66.520883
PR07 -15316.661983   8202.860672 -18619.997241    -42.448608
PR08 -14803.563027  20239.843510  -4563.352952    -57.415041
PR09 -15073.809732 -19114.948548   7522.158937    -21.689427
PR11  -5160.337993  11860.975638  21992.946425      3.354120
PR12   6844.143661  22332.788899  10239.337370    205.095808
PR13  14956.180274  19418.564833  -7075.547335    -50.735996
PR14  14128.492735   4873.131497 -20667.438653     61.004710
PR15   5178.049398 -12167.557968 -21799.899546    105.392440
PR16  -7891.842912 -22468.134721  -9352.351394    -11.340809
PR17  25476.188027    218.378703    852.762413    400.168246
PR18  18317.081282  -6855.789866  16429.053296     66.682741
PR19   2409.513969 -10221.770215  23251.320736   -132.079341
PR20 -17961.544871  -8168.213539  16150.017437   -433.410867
PR21 -25439.728407    212.564722  -1999.683018   -187.795170
PR22 -17318.188872   7131.421461 -17271.846005    -97.939725
PR24  18660.516459   8005.646581 -15411.648360     31.582562
EOF
